[{"OBJECT_NAME":"TIANMU-1 10","OBJECT_ID":"2023-101D","EPOCH":"2026-03-09T23:06:46.939392","MEAN_MOTION":15.2921896,"ECCENTRICITY":0.00069292,"INCLINATION":97.2749,"RA_OF_ASC_NODE":122.1027,"ARG_OF_PERICENTER":133.6162,"MEAN_ANOMALY":226.5654,"EPHEMERIS_TYPE":0,"CLASSIFICATION_TYPE":"U","NORAD_CAT_ID":57402,"ELEMENT_SET_NO":999,"REV_AT_EPOCH":14647,"BSTAR":0.00032238884,"MEAN_MOTION_DOT":9.075e-5,"MEAN_MOTION_DDOT":0},{"OBJECT_NAME":"STARLINK-35003","OBJECT_ID":"2025-192K","EPOCH":"2026-03-09T17:11:04.915104","MEAN_MOTION":15.30180121,"ECCENTRICITY":0.0001029,"INCLINATION":53.1599,"RA_OF_ASC_NODE":232.5552,"ARG_OF_PERICENTER":88.3358,"MEAN_ANOMALY":271.7761,"EPHEMERIS_TYPE":0,"CLASSIFICATION_TYPE":"U","NORAD_CAT_ID":65413,"ELEMENT_SET_NO":999,"REV_AT_EPOCH":2938,"BSTAR":0.00050553466,"MEAN_MOTION_DOT":0.00014634,"MEAN_MOTION_DDOT":0}]
